{
  "type": "FeatureCollection",
  "features": [
    {
      "type": "Feature",
      "properties": {
        "name": "Closed for turf renovation May 30 through July 8, 2024."
      },
      "geometry": {
        "coordinates": [
          [
            [
              -76.99014357517603,
              38.88993863563408
            ],
            [
              -76.99014357517602,
              38.889665511847454
            ],
            [
              -76.98932146332845,
              38.889663446292786
            ],
            [
              -76.98931880958844,
              38.88993450453853
            ],
            [
              -76.99014357517603,
              38.88993863563408
            ]
          ]
        ],
        "type": "Polygon"
      },
      "id": 0
    }
  ]
}
