{
  "type": "FeatureCollection",
  "features": [
    {
      "type": "Feature",
      "properties": {
        "name": "Section 2 End"
      },
      "geometry": {
        "coordinates": [
          -76.95980046144692,
          38.86581638715111
        ],
        "type": "Point"
      }
    },
    {
      "type": "Feature",
      "properties": {
        "name": "Section 3"
      },
      "geometry": {
        "coordinates": [
          [
            -76.95966512282415,
            38.86582996108075
          ],
          [
            -76.95903287301573,
            38.8660375490559
          ],
          [
            -76.95859867736478,
            38.86626886065733
          ],
          [
            -76.95801213236177,
            38.866375619604156
          ],
          [
            -76.95714374105906,
            38.86626886065733
          ],
          [
            -76.95672478034298,
            38.86610872193651
          ],
          [
            -76.95609253053536,
            38.865972307186325
          ],
          [
            -76.95517843442718,
            38.865610510276724
          ],
          [
            -76.95450219214197,
            38.86551566461833
          ],
          [
            -76.95370095020729,
            38.86563449571193
          ],
          [
            -76.95316678891659,
            38.86602069539387
          ],
          [
            -76.95299563314079,
            38.866331457213676
          ],
          [
            -76.95286845188132,
            38.86675726282874
          ],
          [
            -76.9524681786742,
            38.867133278623996
          ],
          [
            -76.95261478488415,
            38.86740036781385
          ],
          [
            -76.95257061920461,
            38.867627847983755
          ],
          [
            -76.95267907103668,
            38.86803356957999
          ],
          [
            -76.95250240831847,
            38.8682305258053
          ],
          [
            -76.95162624867282,
            38.868130413865984
          ],
          [
            -76.95131535010948,
            38.867793192273005
          ],
          [
            -76.95077552527871,
            38.867951084028476
          ],
          [
            -76.95123894199314,
            38.868936955952705
          ],
          [
            -76.95090111677226,
            38.86905143697143
          ],
          [
            -76.95076678156727,
            38.86932435162485
          ],
          [
            -76.9502778292404,
            38.86912886045704
          ],
          [
            -76.94983974941783,
            38.86972553492254
          ],
          [
            -76.95000647609992,
            38.87010691418875
          ],
          [
            -76.94942422439567,
            38.87037457360918
          ],
          [
            -76.94876844602643,
            38.87114754148463
          ],
          [
            -76.94872870188256,
            38.87146564725343
          ],
          [
            -76.94871085942428,
            38.8720405631713
          ],
          [
            -76.94837305788036,
            38.87229144252635
          ],
          [
            -76.94816680846293,
            38.87258621592849
          ]
        ],
        "type": "LineString"
      }
    },
    {
      "type": "Feature",
      "properties": {
        "name": "Section 1"
      },
      "geometry": {
        "coordinates": [
          [
            -76.97671847301994,
            38.85722789410781
          ],
          [
            -76.97630406020878,
            38.85706295421545
          ],
          [
            -76.9761659226049,
            38.85708446813621
          ],
          [
            -76.97588964739765,
            38.85697689846748
          ],
          [
            -76.97550286210729,
            38.857048611598316
          ],
          [
            -76.97605541252182,
            38.85748606012814
          ],
          [
            -76.97581597400874,
            38.8576796840284
          ],
          [
            -76.9756133721899,
            38.857701197762566
          ],
          [
            -76.97555811714884,
            38.85783028003078
          ],
          [
            -76.9760093666542,
            38.85811712867641
          ],
          [
            -76.97609224921652,
            38.85830357967566
          ],
          [
            -76.97587122905031,
            38.858475687856696
          ],
          [
            -76.97571467309956,
            38.8586908224965
          ],
          [
            -76.97557653549569,
            38.85874819162456
          ],
          [
            -76.97536472450341,
            38.85885575861394
          ],
          [
            -76.97532788780919,
            38.85900635212508
          ],
          [
            -76.97538314285075,
            38.859336222513065
          ],
          [
            -76.97527263276764,
            38.85962306508412
          ],
          [
            -76.97525421442032,
            38.85990990649816
          ],
          [
            -76.97530026028842,
            38.860010300719665
          ],
          [
            -76.97512528599034,
            38.86014654979411
          ],
          [
            -76.97519895937876,
            38.86038319230255
          ],
          [
            -76.9750055667338,
            38.86089232957394
          ],
          [
            -76.97499635755989,
            38.86125087476108
          ],
          [
            -76.97473850069997,
            38.86163093068552
          ],
          [
            -76.97468324565841,
            38.86185322660509
          ],
          [
            -76.97459115392267,
            38.86201815538672
          ],
          [
            -76.97430566954148,
            38.86228347479866
          ],
          [
            -76.97394651177187,
            38.86240537797994
          ],
          [
            -76.97381758334141,
            38.86256313472765
          ],
          [
            -76.97365181821726,
            38.86264918371549
          ],
          [
            -76.97360577234913,
            38.862821281378785
          ],
          [
            -76.97360577234913,
            38.86302206145896
          ],
          [
            -76.97369786408488,
            38.863186987529474
          ],
          [
            -76.9737347007791,
            38.863308889162454
          ]
        ],
        "type": "LineString"
      }
    },
    {
      "type": "Feature",
      "properties": {
        "name": "Section 2"
      },
      "geometry": {
        "coordinates": [
          [
            -76.97357269484236,
            38.86346659904359
          ],
          [
            -76.97241749141558,
            38.864811580717856
          ],
          [
            -76.97215048685189,
            38.8649855354802
          ],
          [
            -76.97193252394145,
            38.8649643215077
          ],
          [
            -76.97165462123007,
            38.86477339546977
          ],
          [
            -76.97154563977486,
            38.864811580718026
          ],
          [
            -76.97146935275626,
            38.86487097995328
          ],
          [
            -76.9714802509016,
            38.86500674944679
          ],
          [
            -76.9715892323574,
            38.86517646094893
          ],
          [
            -76.97179084804957,
            38.86533768650082
          ],
          [
            -76.97171456103098,
            38.86558800965963
          ],
          [
            -76.97151839441119,
            38.865736506032164
          ],
          [
            -76.97144755646497,
            38.865863788390044
          ],
          [
            -76.97143665831962,
            38.86608441060474
          ],
          [
            -76.97131677871903,
            38.866279575838945
          ],
          [
            -76.9711151630263,
            38.86638564367615
          ],
          [
            -76.97086995475219,
            38.866402614515636
          ],
          [
            -76.9706519918417,
            38.86627109040481
          ],
          [
            -76.97049941780391,
            38.8662541195344
          ],
          [
            -76.9700639155266,
            38.86634191420103
          ],
          [
            -76.96974054111199,
            38.86632254626224
          ],
          [
            -76.96955812477543,
            38.86647103365803
          ],
          [
            -76.9692181670573,
            38.866542049259266
          ],
          [
            -76.9689445425527,
            38.86665825645417
          ],
          [
            -76.96890308429423,
            38.866903582130504
          ],
          [
            -76.96880358447464,
            38.866987509141495
          ],
          [
            -76.96857970987958,
            38.866974597299674
          ],
          [
            -76.96828121041995,
            38.86672281592507
          ],
          [
            -76.96828121041995,
            38.86645166575437
          ],
          [
            -76.96815683564493,
            38.86636128213456
          ],
          [
            -76.96770079480376,
            38.866374194087115
          ],
          [
            -76.96770908645529,
            38.86719409828416
          ],
          [
            -76.96736083708564,
            38.86722637778328
          ],
          [
            -76.96698771276101,
            38.86719409828416
          ],
          [
            -76.96678871312096,
            38.86703915648329
          ],
          [
            -76.96675554651442,
            38.86678091939851
          ],
          [
            -76.96672237990789,
            38.86665180050434
          ],
          [
            -76.96656483852635,
            38.86661306479033
          ],
          [
            -76.96594974006575,
            38.866774229747165
          ],
          [
            -76.96570928216721,
            38.8667548619261
          ],
          [
            -76.96492986691142,
            38.866645110840835
          ],
          [
            -76.96426653477867,
            38.86667093464115
          ],
          [
            -76.96384366054403,
            38.86652890362444
          ],
          [
            -76.9634539529159,
            38.86652244766219
          ],
          [
            -76.96275745417664,
            38.86651599170003
          ],
          [
            -76.9625013749142,
            38.86634168254176
          ],
          [
            -76.9621448338926,
            38.86627712272474
          ],
          [
            -76.96194583425302,
            38.86627066673964
          ],
          [
            -76.96169708470295,
            38.866354594497835
          ],
          [
            -76.96148150175988,
            38.86634168254176
          ],
          [
            -76.96106691917674,
            38.86619965086723
          ],
          [
            -76.96105862752522,
            38.86594141073303
          ],
          [
            -76.96089833756821,
            38.8657564624384
          ],
          [
            -76.95985269381453,
            38.86580938918382
          ]
        ],
        "type": "LineString"
      }
    },
    {
      "type": "Feature",
      "properties": {
        "name": "Section 3 Start"
      },
      "geometry": {
        "coordinates": [
          -76.95960935725545,
          38.865829287950305
        ],
        "type": "Point"
      }
    },
    {
      "type": "Feature",
      "properties": {
        "name": "Section 3 End"
      },
      "geometry": {
        "coordinates": [
          -76.94823715640253,
          38.87257413350963
        ],
        "type": "Point"
      }
    },
    {
      "type": "Feature",
      "properties": {
        "name": "Section 4"
      },
      "geometry": {
        "coordinates": [
          [
            -76.94795302904134,
            38.872680429282525
          ],
          [
            -76.9477506049691,
            38.8727384908471
          ],
          [
            -76.9468982930861,
            38.87249794977052
          ],
          [
            -76.94652540663724,
            38.87305368137049
          ],
          [
            -76.94607794289875,
            38.87316980384281
          ],
          [
            -76.94548132458034,
            38.87305368137049
          ],
          [
            -76.94509778423314,
            38.87285461383436
          ],
          [
            -76.94484209066852,
            38.87287949730694
          ],
          [
            -76.9447248977843,
            38.8730205034866
          ],
          [
            -76.94491666795818,
            38.87345181477053
          ],
          [
            -76.94446920421966,
            38.87353475894855
          ],
          [
            -76.94398977878555,
            38.87276337436032
          ],
          [
            -76.94358493064101,
            38.87244818254956
          ],
          [
            -76.94332923707583,
            38.87237353165318
          ],
          [
            -76.94308419740958,
            38.8726721347696
          ],
          [
            -76.94311615910523,
            38.872954147672345
          ],
          [
            -76.94278588825038,
            38.873161509386534
          ],
          [
            -76.94269000316345,
            38.87330251500711
          ],
          [
            -76.94342512216278,
            38.87359281981523
          ],
          [
            -76.94369442771695,
            38.8740585879506
          ],
          [
            -76.94382227449896,
            38.87478019289318
          ],
          [
            -76.94369442771695,
            38.874879724034514
          ],
          [
            -76.94243726768943,
            38.87501243200603
          ],
          [
            -76.94228811310956,
            38.8751949050623
          ],
          [
            -76.94115879986465,
            38.87532761244529
          ],
          [
            -76.9403561322095,
            38.87512441016838
          ],
          [
            -76.94036678610786,
            38.87529029452281
          ],
          [
            -76.94110190510719,
            38.875680121232136
          ],
          [
            -76.94143217596145,
            38.87558059121167
          ],
          [
            -76.94217794885915,
            38.87587088671472
          ],
          [
            -76.94247625801835,
            38.87589576913126
          ],
          [
            -76.94320072311932,
            38.87629388661071
          ],
          [
            -76.94334987769862,
            38.87655929702464
          ],
          [
            -76.9435949173649,
            38.87625241614424
          ],
          [
            -76.94391453432137,
            38.876202651552205
          ],
          [
            -76.94411695839361,
            38.87640170971133
          ],
          [
            -76.94450049874085,
            38.87636023930736
          ],
          [
            -76.94487338518967,
            38.87658417920014
          ],
          [
            -76.94496927027662,
            38.87701546885805
          ],
          [
            -76.94484142349404,
            38.8771647608217
          ],
          [
            -76.94452180653755,
            38.87728087657712
          ],
          [
            -76.94429807466858,
            38.87756287119231
          ],
          [
            -76.94451115263921,
            38.877969273228786
          ],
          [
            -76.94471357671144,
            38.87817662031114
          ],
          [
            -76.94491600078368,
            38.87812685706652
          ],
          [
            -76.94527157760835,
            38.87823787944225
          ],
          [
            -76.94531419320236,
            38.87839546268435
          ],
          [
            -76.9452609237094,
            38.878934560606496
          ],
          [
            -76.94586819592618,
            38.87902579215822
          ],
          [
            -76.94602800440441,
            38.879125317353584
          ],
          [
            -76.94625173627392,
            38.879349248533146
          ],
          [
            -76.94648612204128,
            38.879481948158485
          ],
          [
            -76.9465606993315,
            38.879639528641775
          ],
          [
            -76.94632631356362,
            38.87998786320679
          ],
          [
            -76.9459640810131,
            38.88022837893371
          ],
          [
            -76.94584688812945,
            38.880410838597356
          ],
          [
            -76.9458788498251,
            38.880775756519114
          ]
        ],
        "type": "LineString"
      }
    },
    {
      "type": "Feature",
      "properties": {
        "name": "Section 4 Start"
      },
      "geometry": {
        "coordinates": [
          -76.94791373590934,
          38.87268077363288
        ],
        "type": "Point"
      }
    },
    {
      "type": "Feature",
      "properties": {
        "name": "Section 4 End"
      },
      "geometry": {
        "coordinates": [
          -76.94588237488658,
          38.88077395218005
        ],
        "type": "Point"
      }
    },
    {
      "type": "Feature",
      "properties": {
        "name": "Section 5"
      },
      "geometry": {
        "coordinates": [
          [
            -76.94574175355008,
            38.88095499388555
          ],
          [
            -76.94564980883008,
            38.88100972733329
          ],
          [
            -76.94570389395983,
            38.881224450453004
          ],
          [
            -76.94554704708446,
            38.881363388595986
          ],
          [
            -76.94539020020909,
            38.881434962685404
          ],
          [
            -76.94504946389318,
            38.881472854820544
          ],
          [
            -76.94489261701781,
            38.88168336631699
          ],
          [
            -76.94486016594011,
            38.882074916041375
          ],
          [
            -76.9449521106601,
            38.88219701175066
          ],
          [
            -76.94493047660868,
            38.88228963594213
          ],
          [
            -76.94482771486241,
            38.88247067378535
          ],
          [
            -76.94481689783672,
            38.882651711167284
          ],
          [
            -76.94492506809553,
            38.88287484963155
          ],
          [
            -76.94499727419712,
            38.88412378968414
          ],
          [
            -76.94494859758059,
            38.884911070110604
          ],
          [
            -76.94527851687018,
            38.88534049212069
          ],
          [
            -76.94531096794897,
            38.885492052211134
          ],
          [
            -76.94575987452369,
            38.8859846202694
          ],
          [
            -76.94576528303627,
            38.88615722878106
          ],
          [
            -76.94595998950246,
            38.88632983687333
          ],
          [
            -76.94595458098932,
            38.88647297497354
          ],
          [
            -76.94530555943587,
            38.88647297497354
          ],
          [
            -76.94524065728105,
            38.88654454391525
          ],
          [
            -76.94506410138834,
            38.887050438145934
          ],
          [
            -76.94495052261183,
            38.8872230440673
          ],
          [
            -76.9449126630216,
            38.88749247686346
          ],
          [
            -76.94483153534726,
            38.88772822974144
          ],
          [
            -76.94489643750266,
            38.88789662416116
          ],
          [
            -76.94518308868885,
            38.887989240921684
          ],
          [
            -76.94544810582303,
            38.88803133940962
          ],
          [
            -76.94566444634123,
            38.88801870986589
          ],
          [
            -76.94570771444465,
            38.88809869693782
          ],
          [
            -76.94572393998351,
            38.888195523273424
          ],
          [
            -76.9456049526984,
            38.88835970675734
          ],
          [
            -76.94559413567269,
            38.88843969344572
          ],
          [
            -76.94574444646756,
            38.88887563558325
          ],
          [
            -76.94615008493886,
            38.88910296428361
          ],
          [
            -76.946182536016,
            38.88922504791509
          ],
          [
            -76.94605273170578,
            38.889334502027026
          ],
          [
            -76.94595537847263,
            38.889313453172576
          ],
          [
            -76.9458201656487,
            38.889385019252614
          ],
          [
            -76.94546861230766,
            38.88945658526063
          ],
          [
            -76.94524145476375,
            38.88952815119691
          ],
          [
            -76.94506297383639,
            38.889662863351305
          ],
          [
            -76.94452753105487,
            38.889662863351305
          ],
          [
            -76.94454375659373,
            38.889911238215916
          ],
          [
            -76.94526308881576,
            38.88990702847997
          ],
          [
            -76.9452468632769,
            38.88997438422959
          ],
          [
            -76.94574985498073,
            38.889970174496966
          ],
          [
            -76.9459391529338,
            38.89006699828164
          ],
          [
            -76.94619335304229,
            38.890420614459515
          ],
          [
            -76.94619335304229,
            38.89062688975025
          ],
          [
            -76.9460096038816,
            38.89080241217826
          ],
          [
            -76.94580408038966,
            38.89125284686284
          ],
          [
            -76.94555528879431,
            38.891438071511885
          ],
          [
            -76.9452091439659,
            38.89159803786552
          ],
          [
            -76.94512260775905,
            38.891610666772834
          ],
          [
            -76.94510097370708,
            38.891682230538464
          ],
          [
            -76.94479809698204,
            38.89193480795893
          ],
          [
            -76.94493330821919,
            38.892178966235036
          ],
          [
            -76.94441409097655,
            38.892730421918856
          ],
          [
            -76.94438704841195,
            38.89321873024778
          ],
          [
            -76.94446817610624,
            38.89332396867235
          ],
          [
            -76.94440327395081,
            38.893361854466946
          ]
        ],
        "type": "LineString"
      }
    },
    {
      "type": "Feature",
      "properties": {
        "name": "Section 5 Start"
      },
      "geometry": {
        "coordinates": [
          -76.94574722945784,
          38.880950840374254
        ],
        "type": "Point"
      }
    },
    {
      "type": "Feature",
      "properties": {
        "name": "Section 5 End"
      },
      "geometry": {
        "coordinates": [
          -76.94441869876295,
          38.89335042302841
        ],
        "type": "Point"
      }
    },
    {
      "type": "Feature",
      "properties": {
        "name": "Section 6"
      },
      "geometry": {
        "coordinates": [
          [
            -76.94434491919361,
            38.89350360848846
          ],
          [
            -76.94430149500354,
            38.893531261122575
          ],
          [
            -76.94407647874486,
            38.89348517339391
          ],
          [
            -76.94390672963844,
            38.89356813128421
          ],
          [
            -76.94376461410688,
            38.893598856404054
          ],
          [
            -76.94311719890821,
            38.89410889145563
          ],
          [
            -76.94291192091849,
            38.894409994766335
          ],
          [
            -76.94288033969657,
            38.894585125702065
          ],
          [
            -76.9429474498094,
            38.894763328661554
          ],
          [
            -76.94313693718392,
            38.89494460362721
          ],
          [
            -76.94320799494972,
            38.8950398496097
          ],
          [
            -76.94311719891583,
            38.895138167910005
          ],
          [
            -76.94316457075965,
            38.8952672104717
          ],
          [
            -76.94310930360906,
            38.89542083226422
          ],
          [
            -76.94295139746234,
            38.89563897463822
          ],
          [
            -76.94290797325382,
            38.8960015196532
          ],
          [
            -76.94298692848362,
            38.89614285131924
          ],
          [
            -76.9430224573661,
            38.896563769048015
          ],
          [
            -76.94299087613743,
            38.896837210615274
          ],
          [
            -76.94303824798129,
            38.89703691446476
          ],
          [
            -76.94288428948836,
            38.89722740069115
          ],
          [
            -76.94284086529832,
            38.897405597020565
          ],
          [
            -76.94281717937638,
            38.89780807329123
          ],
          [
            -76.94266716787142,
            38.89826306957647
          ],
          [
            -76.9426711155252,
            38.89834294958027
          ]
        ],
        "type": "LineString"
      },
      "id": 12
    },
    {
      "type": "Feature",
      "properties": {
        "name": "Section 6 End"
      },
      "geometry": {
        "coordinates": [
          -76.94266072033486,
          38.89833880653083
        ],
        "type": "Point"
      }
    },
    {
      "type": "Feature",
      "properties": {
        "name": "Section 6 Start"
      },
      "geometry": {
        "coordinates": [
          -76.94435273816883,
          38.89351851236276
        ],
        "type": "Point"
      }
    },
    {
      "type": "Feature",
      "properties": {
        "name": "Section 6"
      },
      "geometry": {
        "coordinates": [
          [
            -76.94391428960432,
            38.89356628744997
          ],
          [
            -76.94446235031032,
            38.89366183752725
          ],
          [
            -76.9445675779655,
            38.89370961251808
          ],
          [
            -76.94477803327686,
            38.89370278752111
          ],
          [
            -76.94523840426996,
            38.893904124647435
          ],
          [
            -76.94544447509547,
            38.893968961905756
          ],
          [
            -76.94570656461822,
            38.89411440783505
          ],
          [
            -76.94587317507288,
            38.89429526897723
          ],
          [
            -76.94591263544375,
            38.89466722723671
          ],
          [
            -76.94644532155942,
            38.89494263858015
          ],
          [
            -76.94682238732543,
            38.89519857103855
          ],
          [
            -76.94689692358138,
            38.89538966667257
          ],
          [
            -76.9469013080672,
            38.89550910118291
          ],
          [
            -76.94686623218166,
            38.895553462521434
          ],
          [
            -76.94683992526772,
            38.89564218511546
          ],
          [
            -76.94653739575814,
            38.89571725799257
          ],
          [
            -76.946528626787,
            38.8957923307903
          ],
          [
            -76.94672154415555,
            38.89599024960441
          ],
          [
            -76.94664700789961,
            38.896089208804625
          ],
          [
            -76.94641901464551,
            38.89619158024607
          ],
          [
            -76.94628309559059,
            38.89627688966803
          ],
          [
            -76.94561665377194,
            38.89652940495543
          ],
          [
            -76.94497939355995,
            38.89652505861355
          ],
          [
            -76.94478209170558,
            38.89663084178471
          ],
          [
            -76.94447079322484,
            38.89669908890849
          ],
          [
            -76.94416387922942,
            38.896702501262325
          ],
          [
            -76.94399726877475,
            38.8965728316783
          ],
          [
            -76.94383065832012,
            38.89651482152445
          ],
          [
            -76.94344920806877,
            38.896432924755885
          ],
          [
            -76.94290553184811,
            38.89600637755939
          ]
        ],
        "type": "LineString"
      }
    },
    {
      "type": "Feature",
      "properties": {
        "name": "Segment 1 End"
      },
      "geometry": {
        "coordinates": [
          -76.97373832904701,
          38.863302161768644
        ],
        "type": "Point"
      }
    },
    {
      "type": "Feature",
      "properties": {
        "name": "Segment 1 Start"
      },
      "geometry": {
        "coordinates": [
          -76.97671434156719,
          38.8572287180651
        ],
        "type": "Point"
      }
    },
    {
      "type": "Feature",
      "properties": {
        "name": "Section 2 Start"
      },
      "geometry": {
        "coordinates": [
          -76.97356625902822,
          38.86347328402027
        ],
        "type": "Point"
      }
    }
  ]
}
