{
  "type": "FeatureCollection",
  "features": [
    {
      "type": "Feature",
      "properties": {},
      "geometry": {
        "coordinates": [
          -77.74051421785921,
          39.32345895499569
        ],
        "type": "Point"
      },
      "id": 0
    },
    {
      "type": "Feature",
      "properties": {
        "name": "Cook Hall premises"
      },
      "geometry": {
        "coordinates": [
          [
            [
              -77.74088138866321,
              39.32350648296426
            ],
            [
              -77.74066781520663,
              39.32316699676463
            ],
            [
              -77.74000661519155,
              39.32335710923968
            ],
            [
              -77.73992177094185,
              39.32372827972475
            ],
            [
              -77.74088138866321,
              39.32350648296426
            ]
          ]
        ],
        "type": "Polygon"
      },
      "id": 1
    },
    {
      "type": "Feature",
      "properties": {
        "name": "Remote parking lot"
      },
      "geometry": {
        "coordinates": [
          [
            [
              -77.7421472702403,
              39.32533312436942
            ],
            [
              -77.74224674280883,
              39.324878224366785
            ],
            [
              -77.7417961905858,
              39.32482617094405
            ],
            [
              -77.74170256934507,
              39.325274281749415
            ],
            [
              -77.7421472702403,
              39.32533312436942
            ]
          ]
        ],
        "type": "Polygon"
      },
      "id": 2
    }
  ]
}
