{
  "type": "FeatureCollection",
  "features": [
    {
      "type": "Feature",
      "properties": {
        "marker-color": "#7e7e7e",
        "marker-size": "medium",
        "marker-symbol": "circle",
        "name": "Information"
      },
      "geometry": {
        "coordinates": [
          -76.94102118769187,
          38.91304980365736
        ],
        "type": "Point"
      }
    },
    {
      "type": "Feature",
      "properties": {
        "marker-color": "#7e7e7e",
        "marker-size": "medium",
        "marker-symbol": "circle",
        "name": "Information"
      },
      "geometry": {
        "coordinates": [
          -76.94203019142151,
          38.91171031808561
        ],
        "type": "Point"
      }
    },
    {
      "type": "Feature",
      "properties": {
        "marker-color": "#7e7e7e",
        "marker-size": "medium",
        "marker-symbol": "gift",
        "name": "Gift Shop"
      },
      "geometry": {
        "coordinates": [
          -76.94194436073303,
          38.912645317717335
        ],
        "type": "Point"
      }
    },
    {
      "type": "Feature",
      "properties": {
        "marker-color": "#7e7e7e",
        "marker-size": "large",
        "marker-symbol": "entrance",
        "name": "Main Entrance"
      },
      "geometry": {
        "coordinates": [
          -76.94227159023285,
          38.91165188019966
        ],
        "type": "Point"
      }
    },
    {
      "type": "Feature",
      "properties": {
        "marker-color": "#7e7e7e",
        "marker-size": "medium",
        "marker-symbol": "hospital",
        "name": "First Aid"
      },
      "geometry": {
        "coordinates": [
          -76.94147745005282,
          38.91296098265539
        ],
        "type": "Point"
      }
    },
    {
      "type": "Feature",
      "properties": {
        "marker-color": "#7e7e7e",
        "marker-size": "medium",
        "marker-symbol": "star-stroked",
        "name": "Activity Zone"
      },
      "geometry": {
        "coordinates": [
          -76.94128453731537,
          38.912369828034336
        ],
        "type": "Point"
      }
    },
    {
      "type": "Feature",
      "properties": {
        "marker-color": "#7e7e7e",
        "marker-size": "medium",
        "marker-symbol": "restaurant",
        "name": "Food"
      },
      "geometry": {
        "coordinates": [
          -76.94094273199724,
          38.913378766232256
        ],
        "type": "Point"
      }
    },
    {
      "type": "Feature",
      "properties": {
        "marker-color": "#7e7e7e",
        "marker-size": "medium",
        "marker-symbol": "restaurant",
        "name": "Food"
      },
      "geometry": {
        "coordinates": [
          -76.9415420293808,
          38.91150161112916
        ],
        "type": "Point"
      }
    },
    {
      "type": "Feature",
      "properties": {
        "marker-color": "#7e7e7e",
        "marker-size": "large",
        "marker-symbol": "theatre",
        "name": "Lotus Stage"
      },
      "geometry": {
        "coordinates": [
          -76.94252371788025,
          38.91219451586113
        ],
        "type": "Point"
      }
    },
    {
      "type": "Feature",
      "properties": {
        "marker-color": "#7e7e7e",
        "marker-size": "medium",
        "marker-symbol": "rail-metro",
        "name": "Deanwood Metro"
      },
      "geometry": {
        "coordinates": [
          -76.93533539772034,
          38.90805785774674
        ],
        "type": "Point"
      }
    },
    {
      "type": "Feature",
      "properties": {
        "marker-color": "#7e7e7e",
        "marker-size": "medium",
        "marker-symbol": "bus",
        "name": "Shuttle Stop"
      },
      "geometry": {
        "coordinates": [
          -76.93472385406494,
          38.90766546797081
        ],
        "type": "Point"
      }
    },
    {
      "type": "Feature",
      "properties": {
        "marker-color": "#7e7e7e",
        "marker-size": "medium",
        "marker-symbol": "star-stroked",
        "name": "Ranger-Led Activities"
      },
      "geometry": {
        "coordinates": [
          -76.94503426551819,
          38.91293750257627
        ],
        "type": "Point"
      }
    }
  ]
}
