{
  "type": "FeatureCollection",
  "features": [
    {
      "type": "Feature",
      "properties": {
        "marker-color": "#0084ff",
        "marker-size": "medium",
        "marker-symbol": "toilet",
        "name": "Food"
      },
      "geometry": {
        "coordinates": [
          -76.94182323929932,
          38.91279274957506
        ],
        "type": "Point"
      }
    },
    {
      "type": "Feature",
      "properties": {
        "marker-color": "#0084ff",
        "marker-size": "medium",
        "marker-symbol": "toilets",
        "name": "Restroom"
      },
      "geometry": {
        "coordinates": [
          -76.94318354129791,
          38.91217781944111
        ],
        "type": "Point"
      }
    },
    {
      "type": "Feature",
      "properties": {
        "marker-color": "#0084ff",
        "marker-size": "medium",
        "marker-symbol": "water",
        "name": "Water Fill Station"
      },
      "geometry": {
        "coordinates": [
          -76.94208920001984,
          38.91252009526671
        ],
        "type": "Point"
      }
    },
    {
      "type": "Feature",
      "properties": {
        "marker-color": "#0084ff",
        "marker-size": "medium",
        "marker-symbol": "water",
        "name": "Water Fill Station"
      },
      "geometry": {
        "coordinates": [
          -76.94498598575592,
          38.913041854020086
        ],
        "type": "Point"
      }
    }
  ]
}
