{
  "type": "FeatureCollection",
  "features": [
    {
      "type": "Feature",
      "properties": {
        "marker-color": "#7e7e7e",
        "marker-size": "medium",
        "marker-symbol": "parking",
        "name": "Parking"
      },
      "geometry": {
        "type": "Point",
        "coordinates": [
          -76.93985223770142,
          38.912958372877306
        ]
      }
    },
    {
      "type": "Feature",
      "properties": {
        "marker-color": "#7e7e7e",
        "marker-size": "medium",
        "marker-symbol": "information",
        "name": "Visitor Center / Bookstore"
      },
      "geometry": {
        "type": "Point",
        "coordinates": [
          -76.94188266992569,
          38.91263696956081
        ]
      },
      "id": 1
    },
    {
      "type": "Feature",
      "properties": {
        "marker-color": "#7e7e7e",
        "marker-size": "medium",
        "marker-symbol": "garden",
        "name": "Aquatic Gardens"
      },
      "geometry": {
        "type": "Point",
        "coordinates": [
          -76.94383800029755,
          38.91287489163633
        ]
      }
    },
    {
      "type": "Feature",
      "properties": {
        "marker-color": "#7e7e7e",
        "marker-size": "medium",
        "marker-symbol": "entrance-alt1",
        "name": "Park Gate",
        "details": "Hours",
        "url": "http://www.nps.gov/keaq/planyourvisit/hours.htm"
      },
      "geometry": {
        "type": "Point",
        "coordinates": [
          -76.94016337394714,
          38.91243243941981
        ]
      },
      "id": 10
    },
    {
      "type": "Feature",
      "properties": {
        "marker-color": "#7e7e7e",
        "marker-size": "medium",
        "marker-symbol": "rail-metro",
        "name": "Deanwood Metro",
        "url": "http://www.wmata.com/rail/station_detail.cfm?station_id=65"
      },
      "geometry": {
        "type": "Point",
        "coordinates": [
          -76.93533539772034,
          38.90805368339885
        ]
      }
    },
    {
      "type": "Feature",
      "properties": {
        "marker-color": "#7e7e7e",
        "marker-size": "medium",
        "marker-symbol": "rail-metro",
        "name": "Minnesota Ave. Metro",
        "url": "http://www.wmata.com/rail/station_detail.cfm?station_id=64"
      },
      "geometry": {
        "type": "Point",
        "coordinates": [
          -76.94674015045166,
          38.8991325411757
        ]
      }
    }
  ]
}
