{
  "type": "FeatureCollection",
  "features": [
    {
      "type": "Feature",
      "properties": {},
      "geometry": {
        "coordinates": [
          [
            -77.39324378784292,
            39.372624360728565
          ],
          [
            -77.39327934273642,
            39.37254740201607
          ],
          [
            -77.39326867626852,
            39.37249517998359
          ],
          [
            -77.39128115772809,
            39.370692121658976
          ],
          [
            -77.39115513211792,
            39.37066359289531
          ],
          [
            -77.39107706526663,
            39.37068227206001
          ],
          [
            -77.39099259126479,
            39.370769603795395
          ],
          [
            -77.39096227795253,
            39.370874010740266
          ],
          [
            -77.39097243167035,
            39.37092200572624
          ],
          [
            -77.39100494660929,
            39.370969765251544
          ],
          [
            -77.39111049424008,
            39.37100546135699
          ],
          [
            -77.39149804257747,
            39.371107159026735
          ],
          [
            -77.39169181674656,
            39.37108483880546
          ],
          [
            -77.39188559091565,
            39.371038444401535
          ],
          [
            -77.39200647755312,
            39.37092025508707
          ],
          [
            -77.3921202532118,
            39.37082405433509
          ]
        ],
        "type": "LineString"
      }
    },
    {
      "type": "Feature",
      "properties": {
        "name": "Junction Trail",
        "distance": "1.0",
        "url": "/mono/planyourvisit/junction-trail.htm",
        "image": "/common/uploads/grid_builder/mono/crop1_1/DD79CB06-E14D-EDED-8461CCED96EA1DB7.jpg"
      },
      "geometry": {
        "coordinates": [
          [
            -77.39472916238712,
            39.377072449091315
          ],
          [
            -77.39411332839829,
            39.37707966169708
          ],
          [
            -77.39324465940187,
            39.37638570313118
          ],
          [
            -77.39245065568154,
            39.37568349968731
          ],
          [
            -77.39202322516347,
            39.375182720809505
          ],
          [
            -77.3915286918088,
            39.37424505038473
          ],
          [
            -77.39108081254419,
            39.37286016026101
          ],
          [
            -77.3910248276361,
            39.37238409793659
          ],
          [
            -77.39107481148528,
            39.37213025745936
          ],
          [
            -77.39114612827028,
            39.37193688491746
          ],
          [
            -77.39123259642282,
            39.371821129656865
          ],
          [
            -77.3913919264709,
            39.37172790462412
          ],
          [
            -77.39178062389513,
            39.37156180082178
          ],
          [
            -77.39243842783303,
            39.371972236237156
          ],
          [
            -77.39289354967308,
            39.372372600618945
          ],
          [
            -77.39309978726003,
            39.37248711717987
          ],
          [
            -77.39453431576204,
            39.37384831196485
          ],
          [
            -77.39535824469287,
            39.37462510508601
          ],
          [
            -77.39594040035024,
            39.375231494445046
          ],
          [
            -77.39635984168017,
            39.37586954778426
          ],
          [
            -77.39722016368852,
            39.37727165317426
          ],
          [
            -77.39679658104146,
            39.37738608650139
          ],
          [
            -77.39593756643968,
            39.377362001457655
          ],
          [
            -77.3958593034129,
            39.377054137983755
          ],
          [
            -77.39563425173435,
            39.376913771584555
          ],
          [
            -77.39534156682939,
            39.37694504193817
          ],
          [
            -77.39497176365548,
            39.377000322996565
          ],
          [
            -77.39473262704215,
            39.3770745642212
          ]
        ],
        "type": "LineString"
      }
    },
    {
      "type": "Feature",
      "properties": {
        "name": "Trailhead - Visitor Center"
      },
      "geometry": {
        "coordinates": [
          -77.39467069614142,
          39.37707330098331
        ],
        "type": "Point"
      }
    }
  ]
}
