{
  "type": "FeatureCollection",
  "features": [
    {
      "type": "Feature",
      "properties": {
        "marker-color": "#ff0000",
        "marker-size": "large",
        "marker-symbol": "star",
        "name": "Tidal Basin Welcome Area",
        "notes": "Information, Vending, Food"
      },
      "geometry": {
        "coordinates": [
          -77.03654856396082,
          38.88026620210025
        ],
        "type": "Point"
      }
    },
    {
      "type": "Feature",
      "properties": {
        "marker-color": "#000000",
        "marker-size": "medium",
        "marker-symbol": "monument",
        "name": "Japanese Pagoda",
        "notes": "The Japanese Pagoda was given to the people of Washington by Ryozo Kiranuma, the Mayor of Yokohama, on June 19, 1957. The Japanese Pagoda is a nine-tiered, 3,800 lb. stone structure with four seated Buddhas carved into its base. A brass plaque, located on the pagoda’s base, reads: “May this pagoda symbolize the spirit of friendship between the United States of American and Japan manifested in the treaty of peace, amity and commerce signed at Yokohama on March 31, 1854, by plenipotentiaries of the two countries.”",
        "url": "http://www.nps.gov/common/uploads/photogallery/ncr/park/chbl/27E1735A-1DD8-B71C-07E1BB73BD2E9F14/27E1735A-1DD8-B71C-07E1BB73BD2E9F14-small.jpg",
        "image": "http://www.nps.gov/chbl/learn/images/pagoda-thumbnail.jpg"
      },
      "geometry": {
        "coordinates": [
          -77.04149186611176,
          38.88287372649676
        ],
        "type": "Point"
      }
    },
    {
      "type": "Feature",
      "properties": {
        "marker-color": "#000000",
        "marker-size": "medium",
        "marker-symbol": "monument",
        "name": "Japanese Stone Lantern",
        "notes": "The Japanese Lantern was given to the United States by the Tokyo government in 1954 as a symbol of Japanese-American understanding. The lantern was carved in Tokyo in 1651 to honor the dead warlord Tokugawa Iemitsu, and has a twin on the grounds of a temple in Ueno Park, Tokyo.",
        "image": "http://www.nps.gov/common/uploads/photogallery/ncr/park/chbl/27DF9086-1DD8-B71C-07745F61B7D2F0E8/27DF9086-1DD8-B71C-07745F61B7D2F0E8-small.jpg"
      },
      "geometry": {
        "coordinates": [
          -77.0413833,
          38.8866
        ],
        "type": "Point"
      }
    },
    {
      "type": "Feature",
      "properties": {
        "marker-color": "#000000",
        "marker-size": "medium",
        "marker-symbol": "monument",
        "name": "First Cherry Trees",
        "notes": "Plaque commemorates the planting of the first cherry trees on the Tidal Basin in this area in 1912. The stone was moved several feet to the east and rotated 90 degrees in 2013.",
        "image": "http://ncrcms.nps.doi.net/chbl/images/csthumbnail_large/DYKcherryplaque.gif"
      },
      "geometry": {
        "coordinates": [
          -77.0414333,
          38.8866333
        ],
        "type": "Point"
      }
    },
    {
      "type": "Feature",
      "properties": {
        "marker-color": "#000000",
        "marker-size": "medium",
        "marker-symbol": "monument",
        "name": "Lady Bird Johnson Tree",
        "notes": "Plaque commemorates tree planted by First Lady Lady Bird Johnson in 1965."
      },
      "geometry": {
        "coordinates": [
          -77.0415667,
          38.8866667
        ],
        "type": "Point"
      }
    }
  ]
}
