{
  "type": "FeatureCollection",
  "features": [
    {
      "type": "Feature",
      "properties": {},
      "geometry": {
        "coordinates": [
          [
            [
              -77.03983350717763,
              38.8800024101302
            ],
            [
              -77.03955721662328,
              38.88009754240974
            ],
            [
              -77.03918528708796,
              38.88017199364327
            ],
            [
              -77.03891962313418,
              38.88013476803627
            ],
            [
              -77.03857957327317,
              38.88001068253922
            ],
            [
              -77.03810137815623,
              38.879973456847665
            ],
            [
              -77.03766037599318,
              38.880002410165076
            ],
            [
              -77.03746909794617,
              38.88046152547432
            ],
            [
              -77.03718218087621,
              38.88057320172254
            ],
            [
              -77.0371662410385,
              38.88075519226962
            ],
            [
              -77.03738939875984,
              38.88092477395128
            ],
            [
              -77.0375116041786,
              38.88116466929657
            ],
            [
              -77.03754348385345,
              38.88139215551422
            ],
            [
              -77.03747972450427,
              38.88160723272256
            ],
            [
              -77.0373681456436,
              38.88183471752248
            ],
            [
              -77.03713967464326,
              38.88199188841389
            ],
            [
              -77.0372034339924,
              38.88206633766259
            ],
            [
              -77.03751691745767,
              38.88205392945963
            ],
            [
              -77.0377241353418,
              38.881938119464536
            ],
            [
              -77.03785696733908,
              38.88156173565858
            ],
            [
              -77.03796323292069,
              38.88083791507569
            ],
            [
              -77.03817045080484,
              38.880560793243376
            ],
            [
              -77.03857426001451,
              38.88039534685802
            ],
            [
              -77.03952533696936,
              38.88031262352047
            ],
            [
              -77.03979631420216,
              38.8802671256438
            ],
            [
              -77.04001415864444,
              38.88010581475655
            ],
            [
              -77.03983350717763,
              38.8800024101302
            ]
          ]
        ],
        "type": "Polygon"
      }
    },
    {
      "type": "Feature",
      "properties": {},
      "geometry": {
        "coordinates": [
          [
            [
              -77.03682619117804,
              38.882058065527815
            ],
            [
              -77.03708654185272,
              38.88195466376115
            ],
            [
              -77.03729375984048,
              38.88176440404911
            ],
            [
              -77.03736814574725,
              38.88166513794528
            ],
            [
              -77.03722468721224,
              38.8815865521816
            ],
            [
              -77.03707591539823,
              38.88178094838611
            ],
            [
              -77.03697496309567,
              38.8818223092118
            ],
            [
              -77.03698027637473,
              38.8819670719125
            ],
            [
              -77.0368208780026,
              38.88201670477045
            ],
            [
              -77.03682619117804,
              38.882058065527815
            ]
          ]
        ],
        "type": "Polygon"
      }
    },
    {
      "type": "Feature",
      "properties": {},
      "geometry": {
        "coordinates": [
          [
            [
              -77.03602237928138,
              38.88190503109527
            ],
            [
              -77.03611270502583,
              38.88191330324784
            ],
            [
              -77.03615521125823,
              38.88183058167752
            ],
            [
              -77.03596393321176,
              38.88172304349314
            ],
            [
              -77.03584704107207,
              38.88152037493285
            ],
            [
              -77.03585235435114,
              38.88135493078178
            ],
            [
              -77.03567170286225,
              38.88135906689064
            ],
            [
              -77.03568232942035,
              38.88155346371667
            ],
            [
              -77.03579390828101,
              38.881764404352566
            ],
            [
              -77.03591080042072,
              38.88187607855306
            ],
            [
              -77.03602237928138,
              38.88190503109527
            ]
          ]
        ],
        "type": "Polygon"
      }
    },
    {
      "type": "Feature",
      "properties": {},
      "geometry": {
        "coordinates": [
          [
            [
              -77.04041872942031,
              38.88036866624273
            ],
            [
              -77.04041872942031,
              38.88080672788334
            ],
            [
              -77.04059430170437,
              38.88127983144847
            ],
            [
              -77.04089142393431,
              38.88166532089187
            ],
            [
              -77.04108050172063,
              38.88243278910187
            ],
            [
              -77.04139112951233,
              38.882397745072126
            ],
            [
              -77.04118854616989,
              38.88165831201158
            ],
            [
              -77.04081489244975,
              38.88120273330895
            ],
            [
              -77.04070234614844,
              38.88096092496485
            ],
            [
              -77.04064382207153,
              38.880533377762674
            ],
            [
              -77.04041872942031,
              38.88036866624273
            ]
          ]
        ],
        "type": "Polygon"
      }
    },
    {
      "type": "Feature",
      "properties": {},
      "geometry": {
        "coordinates": [
          [
            [
              -77.04078788079872,
              38.88049482798439
            ],
            [
              -77.0408734160655,
              38.880911862038886
            ],
            [
              -77.04114352718891,
              38.88096793365071
            ],
            [
              -77.04129208832676,
              38.88116418395248
            ],
            [
              -77.04129208835631,
              38.88133897382494
            ],
            [
              -77.04112551983016,
              38.88145812523172
            ],
            [
              -77.04120655316723,
              38.88154223198629
            ],
            [
              -77.0414361476223,
              38.881612320873074
            ],
            [
              -77.04232751432862,
              38.882288675074335
            ],
            [
              -77.04269216434514,
              38.88209242788571
            ],
            [
              -77.04231851062298,
              38.88179805608743
            ],
            [
              -77.04207286508814,
              38.88136152345635
            ],
            [
              -77.04220792065009,
              38.881172282636584
            ],
            [
              -77.04238799473234,
              38.8809935547325
            ],
            [
              -77.04199183175155,
              38.88075174567655
            ],
            [
              -77.04205935953205,
              38.88068866491818
            ],
            [
              -77.04193780952669,
              38.8805940436753
            ],
            [
              -77.04176223729645,
              38.8806816559416
            ],
            [
              -77.04151013358167,
              38.88053446727238
            ],
            [
              -77.04134356505551,
              38.88062207961215
            ],
            [
              -77.04102843541177,
              38.88053096277622
            ],
            [
              -77.04078788079872,
              38.88049482798439
            ]
          ]
        ],
        "type": "Polygon"
      }
    },
    {
      "type": "Feature",
      "properties": {},
      "geometry": {
        "coordinates": [
          [
            [
              -77.04056943992725,
              38.88024784985541
            ],
            [
              -77.04075862205663,
              38.88035049944699
            ],
            [
              -77.04130167209215,
              38.880255938696905
            ],
            [
              -77.0416803780374,
              38.88028931309347
            ],
            [
              -77.04245208071899,
              38.88076767772375
            ],
            [
              -77.04419555714753,
              38.88196913747697
            ],
            [
              -77.04558188472474,
              38.88301819413681
            ],
            [
              -77.04753800158956,
              38.88468800666155
            ],
            [
              -77.04735222131448,
              38.884882678277364
            ],
            [
              -77.04767376409843,
              38.885116283512815
            ],
            [
              -77.04715929564426,
              38.8853554499818
            ],
            [
              -77.04713785945879,
              38.885655797430076
            ],
            [
              -77.04776665423631,
              38.886801555665414
            ],
            [
              -77.04908855029109,
              38.88688498375981
            ],
            [
              -77.04958872795491,
              38.886428907988346
            ],
            [
              -77.04998887008638,
              38.886951726310286
            ],
            [
              -77.05012463259526,
              38.886973973812985
            ],
            [
              -77.04999601548154,
              38.88665138434021
            ],
            [
              -77.05019608654693,
              38.88652346052308
            ],
            [
              -77.05033184905582,
              38.88660132722205
            ],
            [
              -77.05032470366065,
              38.886712565215134
            ],
            [
              -77.05019608654693,
              38.886979535687544
            ],
            [
              -77.05028897668481,
              38.88699622130869
            ],
            [
              -77.05041759379779,
              38.88672925089898
            ],
            [
              -77.05053192012119,
              38.886879421877836
            ],
            [
              -77.05106782476082,
              38.887224257739405
            ],
            [
              -77.05161087479637,
              38.88750234995666
            ],
            [
              -77.05207532549414,
              38.88793617165328
            ],
            [
              -77.05236114130226,
              38.88832549655109
            ],
            [
              -77.05249690381041,
              38.8882531935169
            ],
            [
              -77.05218965181754,
              38.88790280084808
            ],
            [
              -77.05161087480616,
              38.88735774215053
            ],
            [
              -77.05069626503033,
              38.88659904465183
            ],
            [
              -77.04882417148806,
              38.88515293484599
            ],
            [
              -77.04779523457978,
              38.88436868606445
            ],
            [
              -77.04467271293368,
              38.882027022579905
            ],
            [
              -77.04139830577016,
              38.8799530419698
            ],
            [
              -77.04082667415396,
              38.88006985278764
            ],
            [
              -77.04056943992725,
              38.88024784985541
            ]
          ]
        ],
        "type": "Polygon"
      }
    }
  ]
}
