{
  "type": "FeatureCollection",
  "features": [
    {
      "type": "Feature",
      "properties": {
        "marker-symbol": "park2",
        "marker-size": "small",
        "marker-color": "#306b00",
        "tree": "Willow Oak",
        "person": "Bill and Hillary Clinton",
        "year": 1993,
        "url": "/whho/learn/historyculture/clinton-oak-1993.htm",
        "image": "/common/uploads/grid_builder/whho/crop1_1/25F1960E-BC0D-3CDE-7D77D791CBF27218.jpg",
        "latin": "Quercus phellos"
      },
      "geometry": {
        "coordinates": [
          -77.03618310468066,
          38.89622258240456
        ],
        "type": "Point"
      },
      "id": 0
    },
    {
      "type": "Feature",
      "properties": {
        "marker-color": "#306b00",
        "marker-size": "small",
        "marker-symbol": "park2",
        "tree": "Ruth Ellen Dogwood",
        "person": "Bill & Hillary Clinton",
        "year": 1995,
        "url": "/whho/learn/historyculture/clinton-dogwood-1995.htm",
        "image": "/common/uploads/grid_builder/whho/crop1_1/9B718B70-B234-5CCE-42F6EB6037D5A35B.jpg",
        "latin": "Cornus x rutgersensis ‘Ruth Ellen’"
      },
      "geometry": {
        "coordinates": [
          -77.03597453971935,
          38.89682136038803
        ],
        "type": "Point"
      }
    },
    {
      "type": "Feature",
      "properties": {
        "marker-symbol": "park2",
        "marker-size": "small",
        "marker-color": "#306b00",
        "tree": "Pin Oak",
        "person": "Melania Trump",
        "year": 2018,
        "url": "/whho/learn/historyculture/trump-oak-2018.htm",
        "latin": "Quercus palustris",
        "image": "/common/uploads/grid_builder/whho/crop1_1/88C54D77-D281-5A42-AB70C189A5EB89D9.jpg"
      },
      "geometry": {
        "coordinates": [
          -77.03597685606071,
          38.89660642339118
        ],
        "type": "Point"
      }
    },
    {
      "type": "Feature",
      "properties": {
        "marker-symbol": "park2",
        "marker-size": "small",
        "marker-color": "#306b00",
        "tree": "Princeton Elm",
        "person": "Joe & Jill Biden",
        "year": 2022,
        "url": "/whho/learn/historyculture/biden-elm-2022.htm",
        "image": "/common/uploads/grid_builder/whho/crop1_1/1E2F655B-A6A9-854D-E8F5032B5D1BC8A6.jpg",
        "latin": "Ulmus americana ‘Princeton’ "
      },
      "geometry": {
        "coordinates": [
          -77.03611458791072,
          38.896702815969235
        ],
        "type": "Point"
      }
    },
    {
      "type": "Feature",
      "properties": {
        "marker-color": "#306b00",
        "marker-size": "small",
        "marker-symbol": "park2",
        "tree": "Princeton Elm",
        "person": "Joe and Jill Biden",
        "year": 2024,
        "url": "/whho/learn/historyculture/biden-elm-2024.htm",
        "image": "/common/uploads/grid_builder/whho/crop1_1/BD5D25A7-E46F-6B81-A80B120F601C2A12.jpg",
        "latin": "Ulmus americana 'Princeton'",
        "credit": "NPS / Kelsey Graczyk"
      },
      "geometry": {
        "coordinates": [
          -77.03774671871251,
          38.89674856714336
        ],
        "type": "Point"
      }
    },
    {
      "type": "Feature",
      "properties": {
        "tree": "Flowering Dogwood",
        "person": "Bill & Hillary Clinton",
        "year": 1996,
        "url": "/whho/learn/historyculture/clinton-dogwood-1996.htm",
        "image": "/common/uploads/grid_builder/whho/crop1_1/5AD948DD-9AEF-F1FD-724FE559964BC381.jpg",
        "latin": "Cornus florida",
        "marker-color": "#306b00",
        "marker-size": "small",
        "marker-symbol": "park2",
        "credit": ""
      },
      "geometry": {
        "coordinates": [
          -77.03587222973376,
          38.896724143563716
        ],
        "type": "Point"
      }
    },
    {
      "type": "Feature",
      "properties": {
        "marker-color": "#306b00",
        "marker-size": "small",
        "marker-symbol": "park2",
        "tree": "Willow Oak",
        "person": "Ronald W. Reagan",
        "year": 1988,
        "url": "/whho/learn/historyculture/reagan-oak-1988.htm",
        "image": "/common/uploads/grid_builder/whho/crop1_1/2668C4AE-CC11-C51A-758AA1C6F0601981.jpg",
        "latin": "Quercus phellos",
        "notes": "The oak was a gift from the American Association of Nurserymen. ",
        "credit": "NPS"
      },
      "geometry": {
        "coordinates": [
          -77.03621499046218,
          38.89721098777741
        ],
        "type": "Point"
      }
    },
    {
      "type": "Feature",
      "properties": {
        "marker-color": "#306b00",
        "marker-symbol": "garden",
        "marker-size": "small",
        "tree": "Children's Garden",
        "person": "Lyndon & Claudia \"Lady Bird\" Johnson",
        "year": 1969,
        "url": "/whho/learn/historyculture/children-s-garden.htm",
        "image": "/common/uploads/grid_builder/whho/crop1_1/9995DAF5-97B7-21CE-568E60794F95C1ED.jpg"
      },
      "geometry": {
        "coordinates": [
          -77.03738083510562,
          38.89620363515289
        ],
        "type": "Point"
      }
    },
    {
      "type": "Feature",
      "properties": {
        "marker-color": "#306b00",
        "marker-symbol": "park2",
        "marker-size": "small",
        "tree": "Southern Magnolia",
        "person": "Franklin D. Roosevelt Commemorative",
        "year": 1942,
        "url": "/whho/learn/historyculture/roosevelt-magnolia-1942.htm",
        "image": "/common/uploads/grid_builder/whho/crop1_1/57E787A1-D328-8018-71DE5CD70094EAA5.jpg",
        "latin": "Magnolia grandiflora"
      },
      "geometry": {
        "coordinates": [
          -77.03532323790321,
          38.89740667986845
        ],
        "type": "Point"
      }
    },
    {
      "type": "Feature",
      "properties": {
        "marker-color": "#306b00",
        "marker-symbol": "park2",
        "marker-size": "small",
        "tree": "Southern Magnolia",
        "person": "Warren G. Harding Commemorative",
        "year": "1947",
        "url": "/whho/learn/historyculture/harding-magnolia-1947.htm",
        "image": "/common/uploads/grid_builder/whho/crop1_1/905F9883-9F88-A3A4-D69CB43F57B38883.jpg",
        "latin": "Magnolia grandiflora"
      },
      "geometry": {
        "coordinates": [
          -77.03532440038342,
          38.89773389215469
        ],
        "type": "Point"
      }
    },
    {
      "type": "Feature",
      "properties": {
        "marker-symbol": "park2",
        "marker-size": "small",
        "marker-color": "#306b00",
        "tree": "Japanese Threadleaf Maple",
        "person": "Rosalynn Carter",
        "year": 1978,
        "url": "/whho/learn/historyculture/carter-maple-1978.htm",
        "image": "/common/uploads/grid_builder/whho/crop1_1/27A852D0-BE59-1101-547D6B7EAB450496.jpg",
        "latin": "Acer palmatum var. dissectum ‘Ornatum’"
      },
      "geometry": {
        "coordinates": [
          -77.03633196164594,
          38.896280473384024
        ],
        "type": "Point"
      }
    },
    {
      "type": "Feature",
      "properties": {
        "marker-symbol": "park2",
        "marker-size": "small",
        "marker-color": "#306b00",
        "tree": "White Oak",
        "person": "Herbert Hoover Commemorative",
        "year": 1931,
        "url": "/whho/learn/historyculture/hoover-oak-1931.htm",
        "image": "/common/uploads/grid_builder/whho/crop1_1/520BBDE0-F724-5B82-AFB4E7A1A02F2C38.jpg",
        "latin": "Quercus alba"
      },
      "geometry": {
        "coordinates": [
          -77.0361087352304,
          38.89560561434047
        ],
        "type": "Point"
      }
    },
    {
      "type": "Feature",
      "properties": {
        "marker-symbol": "park2",
        "marker-size": "small",
        "marker-color": "#306b00",
        "tree": "Japanese Threadleaf Maple",
        "person": "Frances Folsom Cleveland",
        "year": 1893,
        "latin": "Acer palmatum var. dissectum ‘Ornatum’",
        "url": "/whho/learn/historyculture/cleveland-maple-1893.htm",
        "image": "/common/uploads/grid_builder/whho/crop1_1/282ED5C0-0372-88F6-4DF5676CF2AC322A.jpg"
      },
      "geometry": {
        "coordinates": [
          -77.0367537052983,
          38.896287312181045
        ],
        "type": "Point"
      }
    },
    {
      "type": "Feature",
      "properties": {
        "marker-color": "#306b00",
        "marker-size": "small",
        "marker-symbol": "park2",
        "tree": "Littleleaf Linden",
        "person": "George H. W. Bush & Queen Elizabeth II",
        "year": 1991,
        "url": "/whho/learn/historyculture/bush-linden-1991.htm",
        "image": "/common/uploads/grid_builder/whho/crop1_1/2533AD11-D082-393B-7843271383EE45E2.jpg",
        "latin": "Tilia cordata"
      },
      "geometry": {
        "coordinates": [
          -77.03613638867638,
          38.89707669579633
        ],
        "type": "Point"
      }
    },
    {
      "type": "Feature",
      "properties": {
        "marker-color": "#306b00",
        "marker-size": "small",
        "marker-symbol": "park2",
        "tree": "Southern Magnolia",
        "person": "Joe & Jill Biden",
        "year": 2022,
        "url": "/whho/learn/historyculture/biden-magnolia-2022.htm",
        "image": "/common/uploads/grid_builder/whho/crop1_1/9B4E86DA-B35B-6121-926871ED6E57FDC6.jpg",
        "latin": "Magnolia grandiflora",
        "notes": "President Joe Biden and First Lady Jill Biden planted a southern magnolia tree near the South Portico on May 30, 2022, as part of a Memorial Day ceremony. The tree was planted with five Gold Star family members in attendance to honor the U.S. Armed Forces members who lost their lives in combat."
      },
      "geometry": {
        "coordinates": [
          -77.03666647666518,
          38.897456113027374
        ],
        "type": "Point"
      }
    },
    {
      "type": "Feature",
      "properties": {
        "marker-color": "#306b00",
        "marker-size": "small",
        "marker-symbol": "park2",
        "tree": "Southern Magnolia",
        "person": "Donald and Melania Trump",
        "year": 2025,
        "url": "/whho/learn/historyculture/trump-magnolia-2025.htm",
        "image": "/common/uploads/image_group/whho/B6494C41-A2EE-B5C4-5842EDDA5DD1BA93.jpg",
        "latin": "Magnolia grandiflora",
        "credit": "NPS / Kelsey Graczyk",
        "notes": ""
      },
      "geometry": {
        "coordinates": [
          -77.03674656484924,
          38.897440497633085
        ],
        "type": "Point"
      }
    },
    {
      "type": "Feature",
      "properties": {
        "marker-color": "#306b00",
        "marker-size": "small",
        "marker-symbol": "park2",
        "tree": "Willow Oak",
        "person": "Lyndon B. Johnson",
        "year": 1964,
        "url": "/whho/learn/historyculture/johnson-oak-1964.htm",
        "image": "/common/uploads/grid_builder/whho/crop1_1/91413A14-ABAE-CD34-263DCCA0F312369E.jpg",
        "latin": "Quercus phellos",
        "notes": "First Lady Claudia “Lady Bird” Johnson chose this specific type of tree to represent her home state of Texas. Irvin Williams, National Park Service Superintendent of the White House Grounds, accompanied the president and first lady during this planting.",
        "credit": "NPS"
      },
      "geometry": {
        "coordinates": [
          -77.03713134121148,
          38.89726845717158
        ],
        "type": "Point"
      }
    },
    {
      "type": "Feature",
      "properties": {
        "marker-color": "#306b00",
        "marker-symbol": "park2",
        "marker-size": "small",
        "tree": "Saucer Magnolia",
        "person": "John F. Kennedy Commemorative",
        "year": 1962,
        "image": "/common/uploads/grid_builder/whho/crop1_1/9108A024-E505-1B19-E5C253741BFFB350.jpg",
        "url": "/whho/learn/historyculture/kennedy-magnolia-1962.htm",
        "latin": "Magnolia x soulangeana"
      },
      "geometry": {
        "coordinates": [
          -77.03724896592519,
          38.897564110252006
        ],
        "type": "Point"
      }
    },
    {
      "type": "Feature",
      "properties": {
        "marker-symbol": "circle",
        "marker-size": "small",
        "marker-color": "#306b00",
        "tree": "White House Kitchen Garden",
        "person": "Michelle Obama",
        "year": 2009,
        "latin": "",
        "credit": "NPS",
        "notes": "Although the White House Kitchen Garden is a recent addition, there is a long tradition of produce-growing at the White House. President John Adams planned the first vegetable garden on the White House grounds in 1797. Many presidents and first ladies continued the practice by planting fruit trees, orchards, and establishing greenhouses. During World War II, First Lady Eleanor Roosevelt planted a Victory Garden at the White House, encouraging all Americans to grow their own food to overcome supply shortages during the war.",
        "url": "/whho/learn/historyculture/white-house-kitchen-garden.htm",
        "image": "/common/uploads/grid_builder/whho/crop1_1/98479808-AFB8-1ACC-0738B4702468D7A7.jpg"
      },
      "geometry": {
        "coordinates": [
          -77.03707519637787,
          38.895803780484925
        ],
        "type": "Point"
      }
    },
    {
      "type": "Feature",
      "properties": {
        "marker-color": "#306b00",
        "marker-size": "small",
        "marker-symbol": "garden",
        "tree": "Jacqueline Kennedy Garden",
        "person": "",
        "year": 1965,
        "url": "/whho/learn/historyculture/jacqueline-kennedy-garden.htm",
        "image": "/common/uploads/grid_builder/whho/crop1_1/99645428-D4FB-E98B-EB35CCFF080651B2.jpg"
      },
      "geometry": {
        "coordinates": [
          -77.03604001966094,
          38.89749116541583
        ],
        "type": "Point"
      }
    },
    {
      "type": "Feature",
      "properties": {
        "marker-color": "#306b00",
        "marker-symbol": "garden",
        "marker-size": "small",
        "tree": "Rose Garden",
        "person": "",
        "year": 1913,
        "url": "/whho/learn/historyculture/rose-garden.htm",
        "image": "/common/uploads/grid_builder/whho/crop1_1/9982EBD7-E35F-9AA6-65D8BDAF19A87D78.jpg"
      },
      "geometry": {
        "coordinates": [
          -77.03711696485817,
          38.89747765219661
        ],
        "type": "Point"
      }
    },
    {
      "type": "Feature",
      "properties": {
        "marker-color": "#306b00",
        "marker-size": "small",
        "marker-symbol": "park2",
        "tree": "Littleleaf Linden",
        "person": "Bill Clinton",
        "year": 1993,
        "url": "/whho/learn/historyculture/clinton-linden-1993.htm",
        "image": "/common/uploads/grid_builder/whho/crop1_1/9AD50023-02EE-53F8-994903DC62E0BD88.jpg",
        "latin": "Tilia cordata",
        "notes": "",
        "credit": "NPS"
      },
      "geometry": {
        "coordinates": [
          -77.03726247105605,
          38.89716504608592
        ],
        "type": "Point"
      }
    },
    {
      "type": "Feature",
      "properties": {
        "marker-color": "#306b00",
        "marker-symbol": "park2",
        "marker-size": "small",
        "tree": "Red Maple",
        "person": "Jimmy Carter",
        "year": 1977,
        "url": "/whho/learn/historyculture/carter-maple-1977.htm",
        "image": "/common/uploads/grid_builder/whho/crop1_1/9157521F-9678-79A7-412462D7C16CBA8D.jpg",
        "latin": "Acer rubrum"
      },
      "geometry": {
        "coordinates": [
          -77.03627759755642,
          38.89804791290666
        ],
        "type": "Point"
      }
    },
    {
      "type": "Feature",
      "properties": {
        "marker-color": "#306b00",
        "marker-symbol": "park2",
        "marker-size": "small",
        "tree": "White Oak",
        "person": "Eleanor Roosevelt",
        "year": 1935,
        "url": "/whho/learn/historyculture/roosevelt-oak-1935.htm",
        "image": "/common/uploads/grid_builder/whho/crop1_1/90D6106B-A1AD-EB3E-16A15EE03DA8B7AE.jpg",
        "latin": "Quercus alba"
      },
      "geometry": {
        "coordinates": [
          -77.035679567063,
          38.89798768359228
        ],
        "type": "Point"
      }
    },
    {
      "type": "Feature",
      "properties": {
        "marker-symbol": "park2",
        "marker-size": "small",
        "marker-color": "#306b00",
        "tree": "Cedar of Lebanon",
        "person": "Jimmy Carter",
        "year": 1978,
        "url": "/whho/learn/historyculture/carter-cedar-1978.htm",
        "image": "/common/uploads/grid_builder/whho/crop1_1/CC685AE3-D578-3218-B31907223F629BEA.jpg",
        "latin": "Cedrus libani"
      },
      "geometry": {
        "coordinates": [
          -77.03708963670955,
          38.89669712830738
        ],
        "type": "Point"
      }
    },
    {
      "type": "Feature",
      "properties": {
        "marker-color": "#306b00",
        "marker-symbol": "park2",
        "marker-size": "small",
        "tree": "Yulan Magnolia",
        "person": "Nancy Reagan",
        "year": 1982,
        "url": "/whho/learn/historyculture/reagan-magnolia-1982.htm",
        "image": "/common/uploads/grid_builder/whho/crop1_1/964FD80D-BFF8-FF0C-5C5AC66EA19DEA95.jpg",
        "latin": "Magnolia denudate"
      },
      "geometry": {
        "coordinates": [
          -77.03626313784585,
          38.89846590255698
        ],
        "type": "Point"
      }
    },
    {
      "type": "Feature",
      "properties": {
        "marker-color": "#306b00",
        "marker-symbol": "park2",
        "marker-size": "small",
        "tree": "Littleleaf Linden",
        "person": "Barack Obama",
        "year": 2009,
        "url": "/whho/learn/historyculture/obama-linden-2009.htm",
        "image": "/common/uploads/grid_builder/whho/crop1_1/66BDBEDB-DF35-DE1C-A937EB0F8E69EAAA.jpg",
        "latin": "Tilia cordata"
      },
      "geometry": {
        "coordinates": [
          -77.03553610545997,
          38.898525355750024
        ],
        "type": "Point"
      }
    },
    {
      "type": "Feature",
      "properties": {
        "marker-color": "#306b00",
        "marker-size": "small",
        "marker-symbol": "park2",
        "tree": "Cherokee Princess Dogwood (3)",
        "person": "Hillary Clinton",
        "year": 1994,
        "url": "/whho/learn/historyculture/clinton-dogwood-1994.htm",
        "image": "/common/uploads/grid_builder/whho/crop1_1/9A362B76-BF86-E782-43A006285207A2D2.jpg",
        "latin": "Cornus florida ‘Cherokee Princess’"
      },
      "geometry": {
        "coordinates": [
          -77.03725571127697,
          38.89646310801274
        ],
        "type": "Point"
      }
    },
    {
      "type": "Feature",
      "properties": {
        "marker-symbol": "park2",
        "marker-size": "small",
        "marker-color": "#306b00",
        "tree": "Wier Cutleaf Silver Maple",
        "person": "George W. & Laura Bush",
        "year": 2001,
        "url": "/whho/learn/historyculture/bush-maple-2001.htm",
        "image": "/common/uploads/grid_builder/whho/crop1_1/CAAEE141-D081-0C24-E0CE1F0FA3FBD705.jpg",
        "latin": "Acer saccharinum ‘Wieri’"
      },
      "geometry": {
        "coordinates": [
          -77.03721774508195,
          38.89673397458387
        ],
        "type": "Point"
      }
    },
    {
      "type": "Feature",
      "properties": {
        "marker-color": "#306b00",
        "marker-size": "small",
        "marker-symbol": "park2",
        "tree": "Silver Linden",
        "person": "Laura Bush",
        "year": 2008,
        "url": "/whho/learn/historyculture/bush-linden-2008.htm",
        "image": "/common/uploads/grid_builder/whho/crop1_1/96AC957E-F11A-A77E-7D94BAA2531EB627.jpg",
        "latin": "Tilia tomentosa"
      },
      "geometry": {
        "coordinates": [
          -77.03594135625725,
          38.897315526353026
        ],
        "type": "Point"
      }
    },
    {
      "type": "Feature",
      "properties": {
        "marker-color": "#306b00",
        "marker-symbol": "park2",
        "marker-size": "small",
        "tree": "Jefferson Elm",
        "person": "George W. & Laura Bush",
        "year": 2006,
        "url": "/whho/learn/historyculture/bush-elm-2006.htm",
        "image": "/common/uploads/grid_builder/whho/crop1_1/970A64C9-C938-2BAE-4A2CA05A1637C0D6.jpg",
        "latin": "Ulmus americana ‘Jefferson’"
      },
      "geometry": {
        "coordinates": [
          -77.03683647997084,
          38.89806548072616
        ],
        "type": "Point"
      }
    },
    {
      "type": "Feature",
      "properties": {
        "marker-color": "#306b00",
        "marker-symbol": "park2",
        "marker-size": "small",
        "tree": "October Glory Maple",
        "person": "Donald & Melania Trump",
        "year": 2020,
        "url": "/whho/learn/historyculture/trump-maple-2020.htm",
        "image": "/common/uploads/grid_builder/whho/crop1_1/9B9497AE-EBAA-1349-165F8CD0EEDCA2AE.jpg",
        "latin": "Acer rubrum ‘October Glory’"
      },
      "geometry": {
        "coordinates": [
          -77.0374534909373,
          38.89705309189452
        ],
        "type": "Point"
      }
    },
    {
      "type": "Feature",
      "properties": {
        "tree": "Yoshino Cherry",
        "person": "Jill Biden",
        "year": 2023,
        "url": "/whho/learn/historyculture/biden-cherry-2023.htm",
        "marker-color": "#306b00",
        "marker-symbol": "park2",
        "marker-size": "small",
        "image": "/common/uploads/grid_builder/whho/crop1_1/9AF383EF-B796-143D-CE54506D8A4E9275.jpg",
        "latin": "Prunus x ‘Yedoensis’"
      },
      "geometry": {
        "coordinates": [
          -77.03555613736214,
          38.897260755678786
        ],
        "type": "Point"
      }
    }
  ]
}
