{
  "type": "FeatureCollection",
  "features": [
    {
      "type": "Feature",
      "properties": {
        "fill": "#312E81",
        "name": "First Amendment Area"
      },
      "geometry": {
        "type": "Polygon",
        "coordinates": [
          [
            [
              -74.0019677,
              40.7336137
            ],
            [
              -74.00183,
              40.73366
            ],
            [
              -74.0018151,
              40.7336977
            ],
            [
              -74.001816,
              40.7337162
            ],
            [
              -74.0018491,
              40.7337287
            ],
            [
              -74.0020243,
              40.7337056
            ],
            [
              -74.0020171,
              40.7336905
            ],
            [
              -74.0019031,
              40.7337049
            ],
            [
              -74.0018875,
              40.7336983
            ],
            [
              -74.001884,
              40.7336792
            ],
            [
              -74.0019824,
              40.7336402
            ],
            [
              -74.0019677,
              40.7336137
            ]
          ]
        ]
      }
    }
  ]
}
